NORAD_CAT_ID,OBJECT_NAME,OBJECT_TYPE,EPOCH,MEAN_MOTION,ECCENTRICITY,INCLINATION,RA_OF_ASC_NODE,ARG_OF_PERICENTER,MEAN_ANOMALY,BSTAR,MEAN_MOTION_DOT,MEAN_MOTION_DDOT,TLE_LINE0,TLE_LINE1,TLE_LINE2,SEMIMAJOR_AXIS,PERIOD,APOGEE,PERIGEE,DECAYED
53866.0,STARLINK-4762,PAYLOAD,2022-12-10 01:27:30,15.73148152,0.0003601,53.2144,212.8676,7.2386,352.8686,-0.0001421,-0.00020481,0.0,0 STARLINK-4762,1 53866U 22114BA  22344.06077424 -.00020481  00000-0 -14210-3 0  9991,2 53866  53.2144 212.8676 0003601   7.2386 352.8686 15.73148152 13488,6728.043000000002,91.536,352.331,347.485,0.0
53866.0,STARLINK-4762,PAYLOAD,2022-12-10 19:45:17,15.73194184,0.0004038,53.2151,209.0953,10.0769,350.0331,5.7635e-05,7.473e-05,0.0,0 STARLINK-4762,1 53866U 22114BA  22344.82311367  .00007473  00000-0  57635-4 0  9995,2 53866  53.2151 209.0953 0004038  10.0769 350.0331 15.73194184 14152,6727.9119999999975,91.534,352.49300000000005,347.06,0.0
53866.0,STARLINK-4762,PAYLOAD,2022-12-10 21:16:45,15.7319562,0.0002961,53.2154,208.7798,12.8607,347.2488,7.9049e-05,0.00010485,0.0,0 STARLINK-4762,1 53866U 22114BA  22344.88663978  .00010485  00000-0  79049-4 0  9999,2 53866  53.2154 208.7798 0002961  12.8607 347.2488 15.73195620 13619,6727.908,91.533,351.765,347.781,0.0
53866.0,STARLINK-4762,PAYLOAD,2022-12-11 00:19:43,15.73213986,0.0002971,53.2155,208.1508,16.015,344.0963,0.0001112,0.00015024,0.0,0 STARLINK-4762,1 53866U 22114BA  22345.01369286  .00015024  00000-0  11120-3 0  9999,2 53866  53.2155 208.1508 0002971  16.0150 344.0963 15.73213986 13634,6727.855,91.532,351.719,347.721,0.0
53866.0,STARLINK-4762,PAYLOAD,2022-12-11 20:08:58,15.73180216,0.0004338,53.2152,204.0679,7.2281,352.8801,-2.5404e-07,-6.61e-06,0.0,0 STARLINK-4762,1 53866U 22114BA  22345.83957145 -.00000661  00000-0 -25404-6 0  9992,2 53866  53.2152 204.0679 0004338   7.2281 352.8801 15.73180216 13762,6727.9519999999975,91.534,352.735,346.898,0.0
53866.0,STARLINK-4762,PAYLOAD,2022-12-12 00:43:25,15.7317911,0.0003342,53.216,203.12,11.1185,348.9908,3.301e-05,4.009e-05,0.0,0 STARLINK-4762,1 53866U 22114BA  22346.03015858  .00004009  00000-0  33010-4 0  9999,2 53866  53.2160 203.1200 0003342  11.1185 348.9908 15.73179110 14342,6727.955,91.534,352.0680000000001,347.571,0.0
53866.0,STARLINK-4762,PAYLOAD,2022-12-12 14:26:43,15.73217436,0.0003339,53.2157,200.2918,11.6837,348.426,1.5624e-05,1.572e-05,0.0,0 STARLINK-4762,1 53866U 22114BA  22346.60189237  .00001572  00000-0  15624-4 0  9998,2 53866  53.2157 200.2918 0003339  11.6837 348.4260 15.73217436 13885,6727.845,91.532,351.957,347.464,0.0
53866.0,STARLINK-4762,PAYLOAD,2022-12-13 13:18:56,15.73204145,0.0003619,53.2157,195.5768,14.1961,345.916,2.1187e-05,2.352e-05,0.0,0 STARLINK-4762,1 53866U 22114BA  22347.55481810  .00002352  00000-0  21187-4 0  9993,2 53866  53.2157 195.5768 0003619  14.1961 345.9160 15.73204145 14583,6727.8830000000025,91.533,352.18300000000005,347.314,0.0
53866.0,STARLINK-4762,PAYLOAD,2022-12-13 16:21:54,15.73202732,0.000397,53.2167,194.9501,8.0558,352.0525,3.3535e-05,4.087e-05,0.0,0 STARLINK-4762,1 53866U 22114BA  22347.68187582  .00004087  00000-0  33535-4 0  9993,2 53866  53.2167 194.9501 0003970   8.0558 352.0525 15.73202732 14052,6727.887,91.533,352.423,347.081,0.0
53866.0,STARLINK-4762,PAYLOAD,2022-12-13 22:27:48,15.73224715,0.0002921,53.216,193.6881,6.032,354.0735,5.992e-05,7.805e-05,0.0,0 STARLINK-4762,1 53866U 22114BA  22347.93597386  .00007805  00000-0  59920-4 0  9995,2 53866  53.2160 193.6881 0002921   6.0320 354.0735 15.73224715 14096,6727.825,91.532,351.655,347.725,0.0
53866.0,STARLINK-4762,PAYLOAD,2022-12-14 18:17:02,15.73222692,0.0003366,53.2161,189.6024,13.3196,346.7912,2.2364e-05,2.52e-05,0.0,0 STARLINK-4762,1 53866U 22114BA  22348.76183303  .00002520  00000-0  22364-4 0  9998,2 53866  53.2161 189.6024 0003366  13.3196 346.7912 15.73222692 14779,6727.83,91.532,351.96,347.431,0.0
53866.0,STARLINK-4762,PAYLOAD,2022-12-14 22:51:28,15.73224619,0.0003884,53.2163,188.6605,10.0558,350.0539,1.5384e-05,1.538e-05,0.0,0 STARLINK-4762,1 53866U 22114BA  22348.95241411  .00001538  00000-0  15384-4 0  9996,2 53866  53.2163 188.6605 0003884  10.0558 350.0539 15.73224619 14253,6727.825,91.532,352.30300000000005,347.077,0.0
53866.0,STARLINK-4762,PAYLOAD,2022-12-15 14:06:15,15.73227113,0.0003764,53.2162,185.5173,7.1583,352.949,2.151e-05,2.4e-05,0.0,0 STARLINK-4762,1 53866U 22114BA  22349.58768501  .00002400  00000-0  21510-4 0  9997,2 53866  53.2162 185.5173 0003764   7.1583 352.9490 15.73227113 14901,6727.818,91.532,352.215,347.151,0.0
53866.0,STARLINK-4762,PAYLOAD,2022-12-15 20:12:11,15.73218955,0.0003811,53.2158,184.2585,8.2091,351.8991,-5.7857e-06,-1.437e-05,0.0,0 STARLINK-4762,1 53866U 22114BA  22349.84179462 -.00001437  00000-0 -57857-5 0  9993,2 53866  53.2158 184.2585 0003811   8.2091 351.8991 15.73218955 14940,6727.840999999999,91.532,352.27,347.142,0.0
53866.0,STARLINK-4762,PAYLOAD,2022-12-15 23:15:08,15.73228252,0.0003498,53.2164,183.6294,7.3282,352.7789,1.1536e-05,9.98e-06,0.0,0 STARLINK-4762,1 53866U 22114BA  22349.96884417  .00000998  00000-0  11536-4 0  9991,2 53866  53.2164 183.6294 0003498   7.3282 352.7789 15.73228252 14418,6727.815,91.532,352.033,347.326,0.0
53866.0,STARLINK-4762,PAYLOAD,2022-12-16 12:58:27,15.73210079,0.0003514,53.2161,180.8004,13.3601,346.7512,-1.1825e-05,-2.284e-05,0.0,0 STARLINK-4762,1 53866U 22114BA  22350.54060095 -.00002284  00000-0 -11825-4 0  9998,2 53866  53.2161 180.8004 0003514  13.3601 346.7512 15.73210079 14509,6727.866,91.533,352.096,347.367,0.0
53866.0,STARLINK-4762,PAYLOAD,2022-12-16 19:04:23,15.73193646,0.0003652,53.2163,179.5429,8.4871,351.621,-4.0887e-05,-6.358e-05,0.0,0 STARLINK-4762,1 53866U 22114BA  22350.79471857 -.00006358  00000-0 -40887-4 0  9993,2 53866  53.2163 179.5429 0003652   8.4871 351.6210 15.73193646 14548,6727.913000000001,91.534,352.235,347.321,0.0
53866.0,STARLINK-4762,PAYLOAD,2022-12-16 22:07:22,15.73165452,0.0003764,53.2164,178.9144,10.8502,349.2599,-9.7622e-05,-0.00014287,0.0,0 STARLINK-4762,1 53866U 22114BA  22350.92178780 -.00014287  00000-0 -97622-4 0  9996,2 53866  53.2164 178.9144 0003764  10.8502 349.2599 15.73165452 14567,6727.994000000002,91.535,352.391,347.326,0.0
53866.0,STARLINK-4762,PAYLOAD,2022-12-17 13:22:10,15.73186839,0.0003872,53.2162,175.7704,12.1723,347.939,-7.436e-06,-1.668e-05,0.0,0 STARLINK-4762,1 53866U 22114BA  22351.55706756 -.00001668  00000-0 -74360-5 0  9990,2 53866  53.2162 175.7704 0003872  12.1723 347.9390 15.73186839 15211,6727.933000000001,91.534,352.403,347.1930000000001,0.0
53866.0,STARLINK-4762,PAYLOAD,2022-12-17 19:28:05,15.73192022,0.0004001,53.2164,174.5138,8.31,351.7986,1.0415e-05,8.37e-06,0.0,0 STARLINK-4762,1 53866U 22114BA  22351.81118049  .00000837  00000-0  10415-4 0  9996,2 53866  53.2164 174.5138 0004001   8.3100 351.7986 15.73192022 14700,6727.918000000002,91.534,352.475,347.091,0.0
53866.0,STARLINK-4762,PAYLOAD,2022-12-18 12:14:22,15.73216069,0.0004072,53.2168,171.0549,13.5049,346.6079,5.5014e-05,7.111e-05,0.0,0 STARLINK-4762,1 53866U 22114BA  22352.50998271  .00007111  00000-0  55014-4 0  9992,2 53866  53.2168 171.0549 0004072  13.5049 346.6079 15.73216069 15367,6727.849,91.532,352.454,346.975,0.0
53866.0,STARLINK-4762,PAYLOAD,2022-12-18 18:20:17,15.73222339,0.0004523,53.2161,169.7989,7.9811,352.12800000000016,5.364e-05,6.92e-05,0.0,0 STARLINK-4762,1 53866U 22114BA  22352.76409131  .00006920  00000-0  53640-4 0  9992,2 53866  53.2161 169.7989 0004523   7.9811 352.1280 15.73222339 15405,6727.831,91.532,352.73900000000015,346.653,0.0
53866.0,STARLINK-4762,PAYLOAD,2022-12-19 05:00:39,15.73217439,0.0004433,53.2163,167.5985,9.9854,350.1254,4.568100000000001e-05,5.798e-05,0.0,0 STARLINK-4762,1 53866U 22114BA  22353.20878810  .00005798  00000-0  45681-4 0  9994,2 53866  53.2163 167.5985 0004433   9.9854 350.1254 15.73217439 14928,6727.845,91.532,352.6930000000001,346.728,0.0
53866.0,STARLINK-4762,PAYLOAD,2022-12-19 18:43:57,15.73232219,0.0004497,53.2158,164.7668,9.9566,350.1542,5.0938e-05,6.542e-05,0.0,0 STARLINK-4762,1 53866U 22114BA  22353.78053031  .00006542  00000-0  50938-4 0  9996,2 53866  53.2158 164.7668 0004497   9.9566 350.1542 15.73232219 15563,6727.803000000001,91.531,352.694,346.64300000000014,0.0
53866.0,STARLINK-4762,PAYLOAD,2022-12-20 11:30:13,15.73243458,0.0004148,53.2157,161.3095,2.9424,357.162,4.3572e-05,5.508e-05,0.0,0 STARLINK-4762,1 53866U 22114BA  22354.47931909  .00005508  00000-0  43572-4 0  9999,2 53866  53.2157 161.3095 0004148   2.9424 357.1620 15.73243458 15121,6727.771,91.531,352.427,346.846,0.0
53866.0,STARLINK-4762,PAYLOAD,2022-12-20 20:39:07,15.7319562,0.0004243,53.2157,159.4234,8.1904,351.9185,-6.6159e-05,-9.902e-05,0.0,0 STARLINK-4762,1 53866U 22114BA  22354.86049902 -.00009902  00000-0 -66159-4 0  9995,2 53866  53.2157 159.4234 0004243   8.1904 351.9185 15.73195620 15182,6727.908,91.533,352.62699999999984,346.918,0.0
53866.0,STARLINK-4762,PAYLOAD,2022-12-21 04:16:32,15.73178685,0.0004543,53.2156,157.8513,15.7105,344.4055,-8.603e-05,-0.00012677,0.0,0 STARLINK-4762,1 53866U 22114BA  22355.17814858 -.00012677  00000-0 -86030-4 0  9993,2 53866  53.2156 157.8513 0004543  15.7105 344.4055 15.73178685 15234,6727.956,91.534,352.87699999999984,346.764,0.0
53866.0,STARLINK-4762,PAYLOAD,2022-12-21 14:56:54,15.73176714,0.0004107,53.2152,155.6504,5.6955,354.4111,-5.8462e-05,-8.817e-05,0.0,0 STARLINK-4762,1 53866U 22114BA  22355.62284916 -.00008817  00000-0 -58462-4 0  9998,2 53866  53.2152 155.6504 0004107   5.6955 354.4111 15.73176714 15306,6727.962,91.535,352.59,347.06300000000016,0.0
53866.0,STARLINK-4762,PAYLOAD,2022-12-21 19:31:20,15.73187256,0.0004348,53.2156,154.7073,6.0103,354.0968,-1.6757e-05,-2.976e-05,0.0,0 STARLINK-4762,1 53866U 22114BA  22355.81343319 -.00002976  00000-0 -16757-4 0  9993,2 53866  53.2156 154.7073 0004348   6.0103 354.0968 15.73187256 15330,6727.932,91.534,352.722,346.871,0.0
